EUTELSAT HOTBIRD 13C    
1 33459U 08065A   26199.23794822 -.00000292  00000+0  00000+0 0  9999
2 33459   3.0284  78.8226 0003497  39.5108 213.0469  1.00269897 47654
EXPRESS-AM44            
1 33595U 09007A   26199.26374105 -.00000099  00000+0  00000+0 0  9993
2 33595   3.5417  78.0144 0003646  32.0038 269.9663  1.00271192 52591
NSS-9                   
1 33749U 09008A   26199.24350319  .00000063  00000+0  00000+0 0  9994
2 33749   1.3402  82.3511 0001981  23.1615 101.2666  1.00273319 63833
TELSTAR 11N             
1 34111U 09009A   26199.25845436 -.00000259  00000+0  00000+0 0  9997
2 34111   0.0149 336.4967 0002312 131.3453 243.7052  1.00272417 46559
WGS F2 (USA 204)        
1 34713U 09017A   26199.20599488  .00000060  00000+0  00000+0 0  9991
2 34713   0.0164  54.7811 0000323 126.8510 246.0238  1.00273278 45923
SES-7 (PROTOSTAR 2)     
1 34941U 09027A   26199.28722784 -.00000353  00000+0  00000+0 0  9996
2 34941   0.0159  56.5507 0000281 174.1270 277.0511  1.00270329 62947
MEASAT-3A               
1 35362U 09032A   26199.26572634 -.00000119  00000+0  00000+0 0  9995
2 35362   0.0267 340.7170 0002770 126.3724  84.6310  1.00272129  8340
EWS-G3 (GOES 14)        
1 35491U 09033A   26199.29026118 -.00000368  00000+0  00000+0 0  9999
2 35491   1.7681  82.6560 0002037  39.3157  41.7478  1.00096755  6903
FM-5                    
1 35493U 09034A   26198.96360093 -.00000209  00000+0  00000+0 0  9992
2 35493   0.0358 248.5990 0000724 112.8401 195.0577  1.00271932 46952
TERRESTAR-1             
1 35496U 09035A   26199.17260642 -.00000067  00000+0  00000+0 0  9991
2 35496   5.1955  48.7663 0002476  62.7079 135.6542  1.00272999 62449
ASIASAT 5               
1 35696U 09042A   26199.00063799  .00000000  00000+0  00000+0 0  9993
2 35696   0.0341  79.9915 0001449  15.9422 300.6837  1.00265907 62016
JCSAT-12 (JCSAT-RA)     
1 35755U 09044A   26199.29208119 -.00000336  00000+0  00000+0 0  9992
2 35755   0.0484 261.8636 0000923 286.9176 344.5141  1.00270977 61921
OPTUS D3                
1 35756U 09044B   26198.86905623 -.00000155  00000+0  00000+0 0  9998
2 35756   0.8964 268.2574 0003206 207.6835 288.7280  1.00270732 61870
NIMIQ 5                 
1 35873U 09050A   26199.25152100 -.00000265  00000+0  00000+0 0  9995
2 35873   0.0379 239.7358 0002794 230.4400 203.7208  1.00272539 61658
AMAZONAS 2              
1 35942U 09054A   26199.25160766 -.00000268  00000+0  00000+0 0  9996
2 35942   1.8942  82.6506 0003295  30.0245 201.9544  1.00273316 61497
COMSATBW-1              
1 35943U 09054B   26199.17614029  .00000017  00000+0  00000+0 0  9995
2 35943   0.0646 163.1914 0002767 313.7867 305.4168  1.00270891 61613
NSS-12                  
1 36032U 09058A   26199.18169799  .00000063  00000+0  00000+0 0  9990
2 36032   0.0845 269.3459 0004904 171.0290 338.0059  1.00271925 61224
THOR 6                  
1 36033U 09058B   26199.26573440 -.00000018  00000+0  00000+0 0  9993
2 36033   0.0135  98.7862 0001700  19.8154 272.2783  1.00271836 61312
INTELSAT 14 (IS-14)     
1 36097U 09064A   26199.23794822  .00000000  00000+0  00000+0 0  9996
2 36097   0.0182  44.7413 0002472  73.2029 218.7699  1.00269912 60917
EUTELSAT 36B            
1 36101U 09065A   26199.27552779  .00000104  00000+0  00000+0 0  9995
2 36101   0.5674  81.3393 0005606  33.0503 331.3689  1.00269493 61029
INTELSAT 15 (IS-15)     
1 36106U 09067A   26198.99760464 -.00000194  00000+0  00000+0 0  9992
2 36106   0.0169  41.9897 0002264  74.0463 264.0448  1.00272821 41534
WGS F3 (USA 211)        
1 36108U 09068A   26198.74106047  .00000055  00000+0  00000+0 0  9994
2 36108   0.2970  85.6714 0000599  92.4272 254.2353  1.00271050 46895
DIRECTV 12              
1 36131U 09075A   26199.23439300 -.00000111  00000+0  00000+0 0  9998
2 36131   0.0439 224.7398 0000274 358.8236  54.1280  1.00272270 46860
BEIDOU-2 G1             
1 36287U 10001A   26198.93734081 -.00000290  00000+0  00000+0 0  9999
2 36287   4.3642  60.3034 0001882 286.9599  66.3844  1.00271019 60479
SDO                     
1 36395U 10005A   26199.24005113 -.00000094  00000+0  00000+0 0  9997
2 36395  34.7143  85.8693 0001755  43.0517 151.3467  1.00277384 60372
INTELSAT 16 (IS-16)     
1 36397U 10006A   26199.25082766 -.00000253  00000+0  00000+0 0  9997
2 36397   0.0178  62.1446 0002370  73.8725 174.1239  1.00271855 59968
EWS-G2 (GOES 15)        
1 36411U 10008A   26199.13100381  .00000014  00000+0  00000+0 0  9991
2 36411   1.3610  82.4264 0005334  53.7983 270.1518  1.00269047 59944
ECHOSTAR 14             
1 36499U 10010A   26199.21572319 -.00000008  00000+0  00000+0 0  9997
2 36499   0.0368 251.4669 0001972 209.0540 154.2415  1.00272216 46869
SES-1                   
1 36516U 10016A   26199.17459977 -.00000123  00000+0  00000+0 0  9990
2 36516   0.0565 270.5261 0002497 201.3527 145.9516  1.00271914 59341
ASTRA 3B                
1 36581U 10021A   26199.27058775  .00000128  00000+0  00000+0 0  9994
2 36581   1.5469  83.1730 0004327  24.3472 309.4561  1.00271558 59179
COMSATBW-2              
1 36582U 10021B   26199.26850775  .00000080  00000+0  00000+0 0  9991
2 36582   0.0427 170.8448 0002222 313.1728 281.9419  1.00268389 59267
BEIDOU-2 G3             
1 36590U 10024A   26198.71133366 -.00000144  00000+0  00000+0 0  9994
2 36590   4.5863  61.3773 0006935 359.5938 210.1623  1.00268200 59078
