OBJECT_NAME,OBJECT_ID,EPOCH,MEAN_MOTION,ECCENTRICITY,INCLINATION,RA_OF_ASC_NODE,ARG_OF_PERICENTER,MEAN_ANOMALY,EPHEMERIS_TYPE,CLASSIFICATION_TYPE,NORAD_CAT_ID,ELEMENT_SET_NO,REV_AT_EPOCH,BSTAR,MEAN_MOTION_DOT,MEAN_MOTION_DDOT
EUTELSAT HOTBIRD 13C,2008-065A,2026-07-18T05:42:38.726208,1.00269897,.00034978,3.0284,78.8226,39.5108,213.0469,0,U,33459,999,4765,0,-.292E-5,0
EXPRESS-AM44,2009-007A,2026-07-18T06:19:47.226720,1.00271192,.00036463,3.5417,78.0144,32.0038,269.9663,0,U,33595,999,5259,0,-.99E-6,0
NSS-9,2009-008A,2026-07-18T05:50:38.675616,1.00273319,.00019818,1.3402,82.3511,23.1615,101.2666,0,U,33749,999,6383,0,.63E-6,0
TELSTAR 11N,2009-009A,2026-07-18T06:12:10.456704,1.00272417,.00023126,0.0149,336.4967,131.3453,243.7052,0,U,34111,999,4655,0,-.259E-5,0
WGS F2 (USA 204),2009-017A,2026-07-18T04:56:37.957632,1.00273278,.00003238,0.0164,54.7811,126.8510,246.0238,0,U,34713,999,4592,0,.6E-6,0
SES-7 (PROTOSTAR 2),2009-027A,2026-07-18T06:53:36.485376,1.00270329,.0000281,0.0159,56.5507,174.1270,277.0511,0,U,34941,999,6294,0,-.353E-5,0
MEASAT-3A,2009-032A,2026-07-18T06:22:38.755776,1.00272129,.00027706,0.0267,340.7170,126.3724,84.6310,0,U,35362,999,834,0,-.119E-5,0
EWS-G3 (GOES 14),2009-033A,2026-07-18T06:57:58.565952,1.00096755,.00020374,1.7681,82.6560,39.3157,41.7478,0,U,35491,999,690,0,-.368E-5,0
FM-5,2009-034A,2026-07-17T23:07:35.120352,1.00271932,.00007245,0.0358,248.5990,112.8401,195.0577,0,U,35493,999,4695,0,-.209E-5,0
TERRESTAR-1,2009-035A,2026-07-18T04:08:33.194688,1.00272999,.00024769,5.1955,48.7663,62.7079,135.6542,0,U,35496,999,6244,0,-.67E-6,0
ASIASAT 5,2009-042A,2026-07-18T00:00:55.122336,1.00265907,.0001449,0.0341,79.9915,15.9422,300.6837,0,U,35696,999,6201,0,0,0
JCSAT-12 (JCSAT-RA),2009-044A,2026-07-18T07:00:35.814816,1.00270977,.00009237,0.0484,261.8636,286.9176,344.5141,0,U,35755,999,6192,0,-.336E-5,0
OPTUS D3,2009-044B,2026-07-17T20:51:26.458272,1.00270732,.00032062,0.8964,268.2574,207.6835,288.7280,0,U,35756,999,6187,0,-.155E-5,0
NIMIQ 5,2009-050A,2026-07-18T06:02:11.414400,1.00272539,.00027941,0.0379,239.7358,230.4400,203.7208,0,U,35873,999,6165,0,-.265E-5,0
AMAZONAS 2,2009-054A,2026-07-18T06:02:18.901824,1.00273316,.00032955,1.8942,82.6506,30.0245,201.9544,0,U,35942,999,6149,0,-.268E-5,0
COMSATBW-1,2009-054B,2026-07-18T04:13:38.521056,1.00270891,.00027673,0.0646,163.1914,313.7867,305.4168,0,U,35943,999,6161,0,.17E-6,0
NSS-12,2009-058A,2026-07-18T04:21:38.706336,1.00271925,.00049042,0.0845,269.3459,171.0290,338.0059,0,U,36032,999,6122,0,.63E-6,0
THOR 6,2009-058B,2026-07-18T06:22:39.452160,1.00271836,.00017009,0.0135,98.7862,19.8154,272.2783,0,U,36033,999,6131,0,-.18E-6,0
INTELSAT 14 (IS-14),2009-064A,2026-07-18T05:42:38.726208,1.00269912,.00024725,0.0182,44.7413,73.2029,218.7699,0,U,36097,999,6091,0,0,0
EUTELSAT 36B,2009-065A,2026-07-18T06:36:45.601056,1.00269493,.00056068,0.5674,81.3393,33.0503,331.3689,0,U,36101,999,6102,0,.104E-5,0
INTELSAT 15 (IS-15),2009-067A,2026-07-17T23:56:33.040896,1.00272821,.00022646,0.0169,41.9897,74.0463,264.0448,0,U,36106,999,4153,0,-.194E-5,0
WGS F3 (USA 211),2009-068A,2026-07-17T17:47:07.624608,1.00271050,.00005999,0.2970,85.6714,92.4272,254.2353,0,U,36108,999,4689,0,.55E-6,0
DIRECTV 12,2009-075A,2026-07-18T05:37:31.555200,1.00272270,.00002744,0.0439,224.7398,358.8236,54.1280,0,U,36131,999,4686,0,-.111E-5,0
BEIDOU-2 G1,2010-001A,2026-07-17T22:29:46.245984,1.00271019,.00018823,4.3642,60.3034,286.9599,66.3844,0,U,36287,999,6047,0,-.29E-5,0
SDO,2010-005A,2026-07-18T05:45:40.417632,1.00277384,.00017554,34.7143,85.8693,43.0517,151.3467,0,U,36395,999,6037,0,-.94E-6,0
INTELSAT 16 (IS-16),2010-006A,2026-07-18T06:01:11.509824,1.00271855,.00023703,0.0178,62.1446,73.8725,174.1239,0,U,36397,999,5996,0,-.253E-5,0
EWS-G2 (GOES 15),2010-008A,2026-07-18T03:08:38.729184,1.00269047,.00053345,1.3610,82.4264,53.7983,270.1518,0,U,36411,999,5994,0,.14E-6,0
ECHOSTAR 14,2010-010A,2026-07-18T05:10:38.483616,1.00272216,.00019726,0.0368,251.4669,209.0540,154.2415,0,U,36499,999,4686,0,-.8E-7,0
SES-1,2010-016A,2026-07-18T04:11:25.420128,1.00271914,.00024972,0.0565,270.5261,201.3527,145.9516,0,U,36516,999,5934,0,-.123E-5,0
ASTRA 3B,2010-021A,2026-07-18T06:29:38.781600,1.00271558,.0004327,1.5469,83.1730,24.3472,309.4561,0,U,36581,999,5917,0,.128E-5,0
COMSATBW-2,2010-021B,2026-07-18T06:26:39.069600,1.00268389,.00022227,0.0427,170.8448,313.1728,281.9419,0,U,36582,999,5926,0,.8E-6,0
BEIDOU-2 G3,2010-024A,2026-07-17T17:04:19.228224,1.00268200,.00069352,4.5863,61.3773,359.5938,210.1623,0,U,36590,999,5907,0,-.144E-5,0
